{
    "links": {
        "self": "http://www.neowsapp.com/rest/v1/neo/3449055?api_key=iIulBulltgU6a56xZRHN4H3l9WmuAYTsLGpBGhQ2"
    },
    "id": "3449055",
    "neo_reference_id": "3449055",
    "name": "(2009 EA)",
    "designation": "2009 EA",
    "nasa_jpl_url": "http://ssd.jpl.nasa.gov/sbdb.cgi?sstr=3449055",
    "absolute_magnitude_h": 26.5,
    "estimated_diameter": {
        "kilometers": {
            "estimated_diameter_min": 0.0133215567,
            "estimated_diameter_max": 0.0297879063
        },
        "meters": {
            "estimated_diameter_min": 13.3215566698,
            "estimated_diameter_max": 29.7879062798
        },
        "miles": {
            "estimated_diameter_min": 0.008277629,
            "estimated_diameter_max": 0.0185093411
        },
        "feet": {
            "estimated_diameter_min": 43.7058959846,
            "estimated_diameter_max": 97.7293544391
        }
    },
    "is_potentially_hazardous_asteroid": false,
    "close_approach_data": [
        {
            "close_approach_date": "2009-03-04",
            "close_approach_date_full": "2009-Mar-04 08:07",
            "epoch_date_close_approach": 1236154020000,
            "relative_velocity": {
                "kilometers_per_second": "9.2553578117",
                "kilometers_per_hour": "33319.2881219643",
                "miles_per_hour": "20703.309888895"
            },
            "miss_distance": {
                "astronomical": "0.0188411837",
                "lunar": "7.3292204593",
                "kilometers": "2818600.949798719",
                "miles": "1751397.4168275622"
            },
            "orbiting_body": "Earth"
        }
    ],
    "orbital_data": {
        "orbit_id": "9",
        "orbit_determination_date": "2017-04-06 09:01:09",
        "first_observation_date": "2009-03-01",
        "last_observation_date": "2009-03-06",
        "data_arc_in_days": 5,
        "observations_used": 33,
        "orbit_uncertainty": "7",
        "minimum_orbit_intersection": ".0153069",
        "jupiter_tisserand_invariant": "3.481",
        "epoch_osculation": "2459000.5",
        "eccentricity": ".5401186565703684",
        "semi_major_axis": "2.160147366761105",
        "inclination": "8.542362594369868",
        "ascending_node_longitude": "162.672493235926",
        "orbital_period": "1159.640826842766",
        "perihelion_distance": ".993411473032078",
        "perihelion_argument": "18.0914846788771",
        "aphelion_distance": "3.326883260490132",
        "perihelion_time": "2459552.799443837089",
        "mean_anomaly": "188.5436359440018",
        "mean_motion": ".3104409500484168",
        "equinox": "J2000",
        "orbit_class": {
            "orbit_class_type": "APO",
            "orbit_class_description": "Near-Earth asteroid orbits which cross the Earth’s orbit similar to that of 1862 Apollo",
            "orbit_class_range": "a (semi-major axis) > 1.0 AU; q (perihelion) < 1.017 AU"
        }
    },
    "is_sentry_object": false
}